NORAD_CAT_ID,OBJECT_NAME,OBJECT_TYPE,EPOCH,MEAN_MOTION,ECCENTRICITY,INCLINATION,RA_OF_ASC_NODE,ARG_OF_PERICENTER,MEAN_ANOMALY,BSTAR,MEAN_MOTION_DOT,MEAN_MOTION_DDOT,TLE_LINE0,TLE_LINE1,TLE_LINE2,SEMIMAJOR_AXIS,PERIOD,APOGEE,PERIGEE,DECAYED
52282.0,STARLINK-3783,PAYLOAD,2024-03-25 15:33:55,15.0883292,0.0001425,53.2173,64.5744,84.2881,275.8274,-9.1794e-05,-1.748e-05,0.0,0 STARLINK-3783,1 52282U 22041X   24085.64855858 -.00001748  00000-0 -91794-4 0  9992,2 52282  53.2173  64.5744 0001425  84.2881 275.8274 15.08832920106702,6917.902,95.438,540.753,538.781,0.0
52282.0,STARLINK-3783,PAYLOAD,2024-03-26 04:17:01,15.08830968,0.0001431,53.2167,62.1954,87.7021,272.4135,-0.00022406,-3.851e-05,0.0,0 STARLINK-3783,1 52282U 22041X   24086.17848415 -.00003851  00000-0 -22406-3 0  9992,2 52282  53.2167  62.1954 0001431  87.7021 272.4135 15.08830968108007,6917.908,95.438,540.763,538.783,0.0
52282.0,STARLINK-3783,PAYLOAD,2024-03-26 07:27:47,15.08833702,0.0001391,53.2172,61.6008,86.156,273.9591,-0.00015024,-2.678e-05,0.0,0 STARLINK-3783,1 52282U 22041X   24086.31096392 -.00002678  00000-0 -15024-3 0  9991,2 52282  53.2172  61.6008 0001391  86.1560 273.9591 15.08833702106800,6917.9,95.438,540.727,538.802,0.0
52282.0,STARLINK-3783,PAYLOAD,2024-03-26 15:24:42,15.08838217,0.0001404,53.2181,60.1147,89.8163,270.299,-2.8382e-05,-7.4e-06,0.0,0 STARLINK-3783,1 52282U 22041X   24086.64216322 -.00000740  00000-0 -28382-4 0  9994,2 52282  53.2181  60.1147 0001404  89.8163 270.2990 15.08838217108072,6917.886,95.438,540.722,538.78,0.0
52282.0,STARLINK-3783,PAYLOAD,2024-03-27 07:18:34,15.08854528,0.0001188,53.2168,57.1409,92.6385,267.4743,0.00055721,8.595e-05,0.0,0 STARLINK-3783,1 52282U 22041X   24087.30456111  .00008595  00000-0  55721-3 0  9990,2 52282  53.2168  57.1409 0001188  92.6385 267.4743 15.08854528108179,6917.836,95.437,540.523,538.879,0.0
52282.0,STARLINK-3783,PAYLOAD,2024-03-27 15:15:29,15.08850779,0.0001082,53.2185,55.6536,91.7774,268.3343,0.00023092,3.39e-05,0.0,0 STARLINK-3783,1 52282U 22041X   24087.63575989  .00003390  00000-0  23092-3 0  9995,2 52282  53.2185  55.6536 0001082  91.7774 268.3343 15.08850779108223,6917.847,95.437,540.461,538.964,0.0
52282.0,STARLINK-3783,PAYLOAD,2024-03-28 07:09:20,15.08856983,0.000143,53.2166,52.6798,98.3035,261.8119,0.00033719,5.085e-05,0.0,0 STARLINK-3783,1 52282U 22041X   24088.29815683  .00005085  00000-0  33719-3 0  9996,2 52282  53.2166  52.6798 0001430  98.3035 261.8119 15.08856983107107,6917.828,95.436,540.683,538.704,0.0
52282.0,STARLINK-3783,PAYLOAD,2024-03-28 21:27:49,15.08842058,0.0001669,53.2172,50.0049,84.7691,275.3492,2.4844e-06,-2.49e-06,0.0,0 STARLINK-3783,1 52282U 22041X   24088.89432375 -.00000249  00000-0  24844-5 0  9994,2 52282  53.2172  50.0049 0001669  84.7691 275.3492 15.08842058108413,6917.874,95.437,540.894,538.585,0.0
52282.0,STARLINK-3783,PAYLOAD,2024-03-29 03:49:21,15.08843382,0.0001438,53.2185,48.8153,95.9978,264.1178,0.0002308,3.387e-05,0.0,0 STARLINK-3783,1 52282U 22041X   24089.15928164  .00003387  00000-0  23080-3 0  9994,2 52282  53.2185  48.8153 0001438  95.9978 264.1178 15.08843382107231,6917.87,95.437,540.73,538.74,0.0
52282.0,STARLINK-3783,PAYLOAD,2024-03-29 21:18:36,15.08841639,0.0001535,53.2184,45.5451,82.1704,277.9462,0.00032288,4.855e-05,0.0,0 STARLINK-3783,1 52282U 22041X   24089.88792517  .00004855  00000-0  32288-3 0  9996,2 52282  53.2184  45.5451 0001535  82.1704 277.9462 15.08841639107341,6917.875,95.437,540.802,538.678,0.0
52282.0,STARLINK-3783,PAYLOAD,2024-03-30 03:40:09,15.08847482,0.0001524,53.2188,44.356,94.4736,265.643,0.00049588,7.614e-05,0.0,0 STARLINK-3783,1 52282U 22041X   24090.15288341  .00007614  00000-0  49588-3 0  9990,2 52282  53.2188  44.3560 0001524  94.4736 265.6430 15.08847482108603,6917.858,95.437,540.777,538.668,0.0
52282.0,STARLINK-3783,PAYLOAD,2024-03-30 06:50:55,15.088505,0.0001512,53.2187,43.7604,93.2057,266.9108,0.00053344,8.214e-05,0.0,0 STARLINK-3783,1 52282U 22041X   24090.28536225  .00008214  00000-0  53344-3 0  9993,2 52282  53.2187  43.7604 0001512  93.2057 266.9108 15.08850500107402,6917.848,95.437,540.759,538.667,0.0
52282.0,STARLINK-3783,PAYLOAD,2024-03-31 03:30:56,15.08845785,0.0001235,53.2188,39.897,90.462,269.6514,0.00029565,4.421e-05,0.0,0 STARLINK-3783,1 52282U 22041X   24091.14648557  .00004421  00000-0  29565-3 0  9995,2 52282  53.2188  39.8970 0001235  90.4620 269.6514 15.08845785108751,6917.863,95.437,540.582,538.873,0.0
52282.0,STARLINK-3783,PAYLOAD,2024-03-31 13:03:14,15.08849298,0.0001217,53.2174,38.11,82.1909,277.9221,0.00032362,4.868e-05,0.0,0 STARLINK-3783,1 52282U 22041X   24091.54392274  .00004868  00000-0  32362-3 0  9995,2 52282  53.2174  38.1100 0001217  82.1909 277.9221 15.08849298107592,6917.852,95.437,540.559,538.875,0.0
52282.0,STARLINK-3783,PAYLOAD,2024-04-01 04:57:05,15.08864087,0.0001189,53.2171,35.1377,86.1537,273.9591,0.00066853,0.00010375,0.0,0 STARLINK-3783,1 52282U 22041X   24092.20631548  .00010375  00000-0  66853-3 0  9991,2 52282  53.2171  35.1377 0001189  86.1537 273.9591 15.08864087108917,6917.807,95.436,540.494,538.849,0.0
52282.0,STARLINK-3783,PAYLOAD,2024-04-01 12:54:01,15.08854648,0.0001209,53.2184,33.6504,88.0638,272.0493,0.00042347,6.461e-05,0.0,0 STARLINK-3783,1 52282U 22041X   24092.53751490  .00006461  00000-0  42347-3 0  9999,2 52282  53.2184  33.6504 0001209  88.0638 272.0493 15.08854648108960,6917.836,95.437,540.537,538.864,0.0
52282.0,STARLINK-3783,PAYLOAD,2024-04-01 20:50:57,15.08832711,0.0001144,53.2167,32.164,83.5155,276.5968,-0.00035217,-5.887e-05,0.0,0 STARLINK-3783,1 52282U 22041X   24092.86871987 -.00005887  00000-0 -35217-3 0  9990,2 52282  53.2167  32.1640 0001144  83.5155 276.5968 15.08832711109018,6917.903,95.438,540.559,538.976,0.0
52282.0,STARLINK-3783,PAYLOAD,2024-04-02 12:44:49,15.08829495,0.0001265,53.2183,29.1928,91.1916,268.9221,8.1318e-06,-1.58e-06,0.0,0 STARLINK-3783,1 52282U 22041X   24093.53112499 -.00000158  00000-0  81318-5 0  9991,2 52282  53.2183  29.1928 0001265  91.1916 268.9221 15.08829495107891,6917.912,95.438,540.653,538.902,0.0
52282.0,STARLINK-3783,PAYLOAD,2024-04-03 04:38:40,15.08834643,0.0001329,53.218,26.2192,90.0008,270.1136,0.00018596,2.672e-05,0.0,0 STARLINK-3783,1 52282U 22041X   24094.19352979  .00002672  00000-0  18596-3 0  9991,2 52282  53.2180  26.2192 0001329  90.0008 270.1136 15.08834643109219,6917.897,95.438,540.681,538.842,0.0
52282.0,STARLINK-3783,PAYLOAD,2024-04-03 12:35:36,15.08836784,0.0001304,53.2174,24.7314,85.5664,274.5477,0.00029965,4.484e-05,0.0,0 STARLINK-3783,1 52282U 22041X   24094.52473131  .00004484  00000-0  29965-3 0  9997,2 52282  53.2174  24.7314 0001304  85.5664 274.5477 15.08836784108045,6917.89,95.438,540.657,538.853,0.0
52282.0,STARLINK-3783,PAYLOAD,2024-04-03 18:57:09,15.08839791,0.0001368,53.2175,23.5417,83.9733,276.1415,0.00038479,5.841e-05,0.0,0 STARLINK-3783,1 52282U 22041X   24094.78969229  .00005841  00000-0  38479-3 0  9991,2 52282  53.2175  23.5417 0001368  83.9733 276.1415 15.08839791108081,6917.881,95.438,540.692,538.8,0.0
52282.0,STARLINK-3783,PAYLOAD,2024-04-04 12:26:23,15.08847714,0.0001382,53.2184,20.2715,81.3585,278.7564,0.00037431,5.675e-05,0.0,0 STARLINK-3783,1 52282U 22041X   24095.51832983  .00005675  00000-0  37431-3 0  9991,2 52282  53.2184  20.2715 0001382  81.3585 278.7564 15.08847714109414,6917.857,95.437,540.678,538.766,0.0
52282.0,STARLINK-3783,PAYLOAD,2024-04-05 04:20:14,15.08858044,0.0001343,53.2174,17.297,94.7405,265.3741,0.00039953,6.079e-05,0.0,0 STARLINK-3783,1 52282U 22041X   24096.18072277  .00006079  00000-0  39953-3 0  9997,2 52282  53.2174  17.2970 0001343  94.7405 265.3741 15.08858044108290,6917.825,95.436,540.619,538.761,0.0
52282.0,STARLINK-3783,PAYLOAD,2024-04-05 21:49:29,15.0884735,0.0001437,53.2189,14.0286,88.8201,271.2956,0.00012322,1.674e-05,0.0,0 STARLINK-3783,1 52282U 22041X   24096.90936469  .00001674  00000-0  12322-3 0  9996,2 52282  53.2189  14.0286 0001437  88.8201 271.2956 15.08847350108408,6917.858,95.437,540.717,538.729,0.0
52282.0,STARLINK-3783,PAYLOAD,2024-04-06 01:00:15,15.08850066,0.0001354,53.2185,13.4329,81.108,279.0065,0.00018045,2.586e-05,0.0,0 STARLINK-3783,1 52282U 22041X   24097.04184361  .00002586  00000-0  18045-3 0  9999,2 52282  53.2185  13.4329 0001354  81.1080 279.0065 15.08850066109646,6917.85,95.437,540.651,538.778,0.0
52282.0,STARLINK-3783,PAYLOAD,2024-04-06 18:29:29,15.08842429,0.0001474,53.2181,10.1607,88.8392,271.2769,4.5435e-05,4.35e-06,0.0,0 STARLINK-3783,1 52282U 22041X   24097.77048519  .00000435  00000-0  45435-4 0  9998,2 52282  53.2181  10.1607 0001474  88.8392 271.2769 15.08842429109759,6917.873,95.437,540.758,538.718,0.0
52282.0,STARLINK-3783,PAYLOAD,2024-04-06 21:40:16,15.08841375,0.0001514,53.218,9.5652,90.1033,270.0133,1.8323e-05,4e-08,0.0,0 STARLINK-3783,1 52282U 22041X   24097.90296539  .00000004  00000-0  18323-4 0  9998,2 52282  53.2180   9.5652 0001514  90.1033 270.0133 15.08841375108551,6917.876,95.437,540.789,538.694,0.0
52282.0,STARLINK-3783,PAYLOAD,2024-04-07 00:51:02,15.08843364,0.0001467,53.2185,8.97,91.2179,268.8981,-3.5407e-05,-8.51e-06,0.0,0 STARLINK-3783,1 52282U 22041X   24098.03544447 -.00000851  00000-0 -35407-4 0  9991,2 52282  53.2185   8.9700 0001467  91.2179 268.8981 15.08843364108571,6917.87,95.437,540.75,538.72,0.0
52282.0,STARLINK-3783,PAYLOAD,2024-04-07 18:20:17,15.08834974,0.0001437,53.2179,5.6971,88.2209,271.8947,-2.5888e-05,-7e-06,0.0,0 STARLINK-3783,1 52282U 22041X   24098.76409016 -.00000700  00000-0 -25888-4 0  9998,2 52282  53.2179   5.6971 0001437  88.2209 271.8947 15.08834974109906,6917.896,95.438,540.755,538.767,0.0
52282.0,STARLINK-3783,PAYLOAD,2024-04-07 23:06:27,15.08833706,0.0001438,53.2188,4.8063,90.881,269.2347,1.2767e-05,-8.5e-07,0.0,0 STARLINK-3783,1 52282U 22041X   24098.96281387 -.00000085  00000-0  12767-4 0  9996,2 52282  53.2188   4.8063 0001438  90.8810 269.2347 15.08833706108712,6917.9,95.438,540.759,538.77,0.0
